[{"OBJECT_NAME":"TRANSPORTER-11 OBJECT A","OBJECT_ID":"2024-149A","EPOCH":"2026-03-09T17:54:54.302112","MEAN_MOTION":15.31141332,"ECCENTRICITY":0.00031096,"INCLINATION":97.378,"RA_OF_ASC_NODE":149.0949,"ARG_OF_PERICENTER":191.001,"MEAN_ANOMALY":169.1164,"EPHEMERIS_TYPE":0,"CLASSIFICATION_TYPE":"U","NORAD_CAT_ID":60468,"ELEMENT_SET_NO":999,"REV_AT_EPOCH":8683,"BSTAR":0.00036053677,"MEAN_MOTION_DOT":0.00010774,"MEAN_MOTION_DDOT":0},{"OBJECT_NAME":"STARLINK-35679","OBJECT_ID":"2025-257AE","EPOCH":"2026-03-09T16:28:22.959840","MEAN_MOTION":15.30194471,"ECCENTRICITY":8.862e-5,"INCLINATION":53.1584,"RA_OF_ASC_NODE":216.9791,"ARG_OF_PERICENTER":66.6156,"MEAN_ANOMALY":293.4938,"EPHEMERIS_TYPE":0,"CLASSIFICATION_TYPE":"U","NORAD_CAT_ID":66408,"ELEMENT_SET_NO":999,"REV_AT_EPOCH":1973,"BSTAR":0.0011385542,"MEAN_MOTION_DOT":0.00033508,"MEAN_MOTION_DDOT":0}]
